DEMOSAT
1 70003U 26040A   26086.50000000  .00001500  00000-0  70000-4 0  9996
2 70003  51.6000 150.0000 0005000  90.0000 270.0000 15.50000000  1005
